APRIZESAT 2             
1 28366U 04025A   26201.40490904  .00000108  00000+0  46347-4 0  9993
2 28366  98.1048   5.5098 0106266 149.2234 211.5244 14.38049083156416
SAUDICOMSAT 1           
1 28369U 04025D   26201.01411691  .00000128  00000+0  40744-4 0  9996
2 28369  98.5779 212.0328 0030878 283.5654  76.2104 14.55495394168905
SAUDICOMSAT 2           
1 28370U 04025E   26201.45520299  .00000111  00000+0  40702-4 0  9997
2 28370  98.6644 214.6422 0055964 157.8111 202.5522 14.49995974164924
APRIZESAT 1             
1 28372U 04025G   26201.03210383  .00000101  00000+0  36784-4 0  9997
2 28372  98.6310 212.6523 0045610  56.3603 304.1930 14.51793593166674
NANOSAT-1               
1 28493U 04049B   26201.63093232  .00000527  00000+0  76665-4 0  9999
2 28493  98.2317 339.1184 0004195 167.5068 192.6248 14.80216830160393
SAUDICOMSAT 7           
1 31119U 07012C   26200.87172126  .00000262  00000+0  56092-4 0  9994
2 31119  98.3802 175.6764 0057030  93.9673 266.8052 14.66139390 27229
SAUDICOMSAT 6           
1 31121U 07012E   26200.86009125  .00000157  00000+0  40093-4 0  9991
2 31121  98.4121 168.9897 0070725 224.3685 135.1835 14.62586541 24963
SAUDICOMSAT 5           
1 31124U 07012H   26201.20824995  .00000345  00000+0  68164-4 0  9991
2 31124  98.3514 176.7608 0047921  23.3041 337.0321 14.68195963 28443
SAUDICOMSAT 3           
1 31125U 07012J   26201.51963751  .00000385  00000+0  71306-4 0  9996
2 31125  98.3169 177.6245 0037938 307.9922  51.7859 14.70754280 29727
SAUDICOMSAT 4           
1 31127U 07012L   26201.42762482  .00000220  00000+0  50150-4 0  9998
2 31127  98.4008 174.6805 0063906 153.4729 206.9767 14.64538082 26153
SALSAT                  
1 46495U 20068K   26200.97640307  .00004107  00000+0  14329-3 0  9993
2 46495  97.8865 206.0496 0009725 176.0322 184.0997 15.30211220320374
OOV-CUBE (TUBSAT-30)    
1 60240U 24128F   26201.45672186  .00001048  00000+0  92250-4 0  9993
2 60240  61.9942 109.5533 0040424 141.1866 219.2141 15.02886563111111
LPNTSAT-001 (IOD-1)     
1 68408U 26065A   26201.22011982  .00001315  00000+0  66560-4 0  9997
2 68408  97.3974  81.0264 0014730 247.0306 112.9374 15.18682969 17274
